KUIPER-00074            
1 64821U 25151F   25227.46545745  .00023160  00000+0  66394-3 0  9995
2 64821  51.8772 142.0092 0004532 256.2636 103.7846 15.35781890  4634
KUIPER-00075            
1 64822U 25151G   25227.46131483  .00027406  00000+0  76098-3 0  9995
2 64822  51.8770 141.9905 0004466 245.7028 114.3492 15.36682072  4636
KUIPER-00076            
1 64823U 25151H   25227.58336806  .00053529  00000+0  15203-2 0  9990
2 64823  51.8768 141.4672 0004871 250.2954  29.0950 15.35654875  5898
KUIPER-00077            
1 64824U 25151J   25227.47027994  .00023567  00000+0  67772-3 0  9992
2 64824  51.8796 142.0492 0005453 262.0504  97.9863 15.35669794  4630
KUIPER-00078            
1 64825U 25151K   25227.46966168  .00031192  00000+0  89174-3 0  9990
2 64825  51.8784 142.0414 0005460 263.9460  96.0904 15.35698962  4636
KUIPER-00079            
1 64826U 25151L   25227.58336806 -.00999681  00000+0 -37357-1 0  9996
2 64826  51.8794 141.5075 0004347 255.4530 355.1357 15.29491375  4185
KUIPER-00080            
1 64827U 25151M   25227.58336806  .00034074  00000+0  11563-2 0  9993
2 64827  51.8799 141.5658 0002873 279.1065 324.5417 15.30197725  4794
KUIPER-00082            
1 64828U 25151N   25227.46084110  .00030074  00000+0  84951-3 0  9997
2 64828  51.8773 141.9813 0004857 248.7285 111.3183 15.36096319  4632
KUIPER-00083            
1 64829U 25151P   25227.46843900  .00029272  00000+0  83657-3 0  9998
2 64829  51.8786 142.0290 0005178 253.9034 106.1383 15.35743277  5822
KUIPER-00084            
1 64830U 25151Q   25227.58336806 -.01326767  00000+0 -70725-1 0  9997
2 64830  51.8870 142.5864 0007557 237.7698 189.2509 15.17970326  4377
KUIPER-00085            
1 64831U 25151R   25227.45839420  .00030001  00000+0  84337-3 0  9990
2 64831  51.8769 141.9692 0005531 242.4861 117.5564 15.36245424  4631
KUIPER-00086            
1 64832U 25151S   25227.47130769  .00045318  00000+0  12934-2 0  9993
2 64832  51.8781 142.0501 0005046 275.9458  84.0953 15.35575819  4634
KUIPER-00087            
1 64833U 25151T   25227.07250964  .00020604  00000+0  58814-3 0  9999
2 64833  51.8779 143.8831 0005042 239.4793 120.5695 15.35988084  4574
KUIPER-00089            
1 64834U 25151U   25227.46855498  .00037559  00000+0  10700-2 0  9994
2 64834  51.8794 142.0379 0005332 263.7823  96.2556 15.35717846  4634
KUIPER-00090            
1 64835U 25151V   25227.47296139  .00026335  00000+0  76064-3 0  9993
2 64835  51.8791 142.0630 0005403 268.3086  91.7281 15.35468574  4639
KUIPER-00091            
1 64836U 25151W   25227.46005340  .00028758  00000+0  81426-3 0  9994
2 64836  51.8770 141.9762 0005368 241.7511 118.2934 15.36043242  4631
KUIPER-00092            
1 64837U 25151X   25227.46325495  .00033572  00000+0  94827-3 0  9990
2 64837  51.8775 141.9953 0005222 248.5100 111.5329 15.36040487  5843
KUIPER-00093            
1 64838U 25151Y   25227.46766256  .00023157  00000+0  66363-3 0  9997
2 64838  51.8795 142.0328 0005141 254.8397 105.2021 15.35790673  4635
KUIPER-00094            
1 64839U 25151Z   25227.46282891  .00023851  00000+0  67955-3 0  9995
2 64839  51.8770 141.9929 0005017 254.9626 105.0805 15.35955586  4636
